CCSDS_OMM_VERS = 2.0
CREATION_DATE  = 
ORIGINATOR     = 

OBJECT_NAME    = SL-14 R/B
OBJECT_ID      = 1986-046B
CENTER_NAME    = EARTH
REF_FRAME      = TEME
TIME_SYSTEM    = UTC
MEAN_ELEMENT_THEORY = SGP/SGP4

EPOCH          = 2026-02-24T11:18:11.938464
MEAN_MOTION    = 14.85575950
ECCENTRICITY   = .0021557
INCLINATION    = 82.4791
RA_OF_ASC_NODE = 92.6755
ARG_OF_PERICENTER = 271.8361
MEAN_ANOMALY   = 88.0386

EPHEMERIS_TYPE = 0
CLASSIFICATION_TYPE = U
NORAD_CAT_ID   = 16792
ELEMENT_SET_NO = 999
REV_AT_EPOCH   = 12444
BSTAR          = .45957E-4
MEAN_MOTION_DOT = .423E-5
MEAN_MOTION_DDOT = 0

CCSDS_OMM_VERS = 2.0
CREATION_DATE  = 
ORIGINATOR     = 

OBJECT_NAME    = SL-14 R/B
OBJECT_ID      = 1986-055B
CENTER_NAME    = EARTH
REF_FRAME      = TEME
TIME_SYSTEM    = UTC
MEAN_ELEMENT_THEORY = SGP/SGP4

EPOCH          = 2026-02-24T08:00:26.527968
MEAN_MOTION    = 14.85628586
ECCENTRICITY   = .0019359
INCLINATION    = 82.5226
RA_OF_ASC_NODE = 139.2256
ARG_OF_PERICENTER = 20.9528
MEAN_ANOMALY   = 47.4571

EPHEMERIS_TYPE = 0
CLASSIFICATION_TYPE = U
NORAD_CAT_ID   = 16882
ELEMENT_SET_NO = 999
REV_AT_EPOCH   = 11738
BSTAR          = .5437E-4
MEAN_MOTION_DOT = .496E-5
MEAN_MOTION_DDOT = 0

CCSDS_OMM_VERS = 2.0
CREATION_DATE  = 
ORIGINATOR     = 

OBJECT_NAME    = AJISAI (EGS)
OBJECT_ID      = 1986-061A
CENTER_NAME    = EARTH
REF_FRAME      = TEME
TIME_SYSTEM    = UTC
MEAN_ELEMENT_THEORY = SGP/SGP4

EPOCH          = 2026-02-24T12:50:53.780352
MEAN_MOTION    = 12.44515469
ECCENTRICITY   = .0011235
INCLINATION    = 50.0086
RA_OF_ASC_NODE = 133.7983
ARG_OF_PERICENTER = 253.1215
MEAN_ANOMALY   = 132.2327

EPHEMERIS_TYPE = 0
CLASSIFICATION_TYPE = U
NORAD_CAT_ID   = 16908
ELEMENT_SET_NO = 999
REV_AT_EPOCH   = 46636
BSTAR          = .30624E-4
MEAN_MOTION_DOT = -.93E-6
MEAN_MOTION_DDOT = 0

CCSDS_OMM_VERS = 2.0
CREATION_DATE  = 
ORIGINATOR     = 

OBJECT_NAME    = COSMOS 1812
OBJECT_ID      = 1987-003A
CENTER_NAME    = EARTH
REF_FRAME      = TEME
TIME_SYSTEM    = UTC
MEAN_ELEMENT_THEORY = SGP/SGP4

EPOCH          = 2026-02-24T13:18:06.848352
MEAN_MOTION    = 16.08460733
ECCENTRICITY   = .0004922
INCLINATION    = 82.4737
RA_OF_ASC_NODE = 210.6656
ARG_OF_PERICENTER = 287.6561
MEAN_ANOMALY   = 72.4183

EPHEMERIS_TYPE = 0
CLASSIFICATION_TYPE = U
NORAD_CAT_ID   = 17295
ELEMENT_SET_NO = 999
REV_AT_EPOCH   = 14236
BSTAR          = .74051E-3
MEAN_MOTION_DOT = .622062E-2
MEAN_MOTION_DDOT = .19686E-3

CCSDS_OMM_VERS = 2.0
CREATION_DATE  = 
ORIGINATOR     = 

OBJECT_NAME    = SL-14 R/B
OBJECT_ID      = 1987-024B
CENTER_NAME    = EARTH
REF_FRAME      = TEME
TIME_SYSTEM    = UTC
MEAN_ELEMENT_THEORY = SGP/SGP4

EPOCH          = 2026-02-24T12:13:14.810880
MEAN_MOTION    = 14.86118381
ECCENTRICITY   = .0016933
INCLINATION    = 82.5265
RA_OF_ASC_NODE = 105.1542
ARG_OF_PERICENTER = 307.4483
MEAN_ANOMALY   = 52.5192

EPHEMERIS_TYPE = 0
CLASSIFICATION_TYPE = U
NORAD_CAT_ID   = 17567
ELEMENT_SET_NO = 999
REV_AT_EPOCH   = 8617
BSTAR          = .45533E-4
MEAN_MOTION_DOT = .424E-5
MEAN_MOTION_DDOT = 0

CCSDS_OMM_VERS = 2.0
CREATION_DATE  = 
ORIGINATOR     = 

OBJECT_NAME    = COSMOS 1833
OBJECT_ID      = 1987-027A
CENTER_NAME    = EARTH
REF_FRAME      = TEME
TIME_SYSTEM    = UTC
MEAN_ELEMENT_THEORY = SGP/SGP4

EPOCH          = 2026-02-24T06:26:53.990016
MEAN_MOTION    = 14.13057036
ECCENTRICITY   = .0024774
INCLINATION    = 70.9234
RA_OF_ASC_NODE = 354.2234
ARG_OF_PERICENTER = 232.8778
MEAN_ANOMALY   = 127.0080

EPHEMERIS_TYPE = 0
CLASSIFICATION_TYPE = U
NORAD_CAT_ID   = 17589
ELEMENT_SET_NO = 999
REV_AT_EPOCH   = 842
BSTAR          = -.22052E-4
MEAN_MOTION_DOT = -.89E-6
MEAN_MOTION_DDOT = 0

CCSDS_OMM_VERS = 2.0
CREATION_DATE  = 
ORIGINATOR     = 

OBJECT_NAME    = SL-16 R/B
OBJECT_ID      = 1987-027B
CENTER_NAME    = EARTH
REF_FRAME      = TEME
TIME_SYSTEM    = UTC
MEAN_ELEMENT_THEORY = SGP/SGP4

EPOCH          = 2026-02-24T10:08:16.011456
MEAN_MOTION    = 14.17167013
ECCENTRICITY   = .0004115
INCLINATION    = 71.0033
RA_OF_ASC_NODE = 304.4538
ARG_OF_PERICENTER = 168.1450
MEAN_ANOMALY   = 191.9771

EPHEMERIS_TYPE = 0
CLASSIFICATION_TYPE = U
NORAD_CAT_ID   = 17590
ELEMENT_SET_NO = 999
REV_AT_EPOCH   = 1346
BSTAR          = .70707E-4
MEAN_MOTION_DOT = .95E-6
MEAN_MOTION_DDOT = 0

CCSDS_OMM_VERS = 2.0
CREATION_DATE  = 
ORIGINATOR     = 

OBJECT_NAME    = SL-14 R/B
OBJECT_ID      = 1987-038B
CENTER_NAME    = EARTH
REF_FRAME      = TEME
TIME_SYSTEM    = UTC
MEAN_ELEMENT_THEORY = SGP/SGP4

EPOCH          = 2026-02-24T03:51:11.865600
MEAN_MOTION    = 14.85355481
ECCENTRICITY   = .00184977
INCLINATION    = 82.5025
RA_OF_ASC_NODE = 309.5518
ARG_OF_PERICENTER = 205.3262
MEAN_ANOMALY   = 154.7050

EPHEMERIS_TYPE = 0
CLASSIFICATION_TYPE = U
NORAD_CAT_ID   = 17912
ELEMENT_SET_NO = 999
REV_AT_EPOCH   = 7722
BSTAR          = .45054089E-4
MEAN_MOTION_DOT = .413E-5
MEAN_MOTION_DDOT = 0

CCSDS_OMM_VERS = 2.0
CREATION_DATE  = 
ORIGINATOR     = 

OBJECT_NAME    = COSMOS 1844
OBJECT_ID      = 1987-041A
CENTER_NAME    = EARTH
REF_FRAME      = TEME
TIME_SYSTEM    = UTC
MEAN_ELEMENT_THEORY = SGP/SGP4

EPOCH          = 2026-02-24T11:01:42.792384
MEAN_MOTION    = 14.14552493
ECCENTRICITY   = .0029324
INCLINATION    = 70.8987
RA_OF_ASC_NODE = 62.0816
ARG_OF_PERICENTER = 38.4428
MEAN_ANOMALY   = 321.8775

EPHEMERIS_TYPE = 0
CLASSIFICATION_TYPE = U
NORAD_CAT_ID   = 17973
ELEMENT_SET_NO = 999
REV_AT_EPOCH   = 171
BSTAR          = .64254E-4
MEAN_MOTION_DOT = .76E-6
MEAN_MOTION_DDOT = 0

CCSDS_OMM_VERS = 2.0
CREATION_DATE  = 
ORIGINATOR     = 

OBJECT_NAME    = SL-14 R/B
OBJECT_ID      = 1987-055B
CENTER_NAME    = EARTH
REF_FRAME      = TEME
TIME_SYSTEM    = UTC
MEAN_ELEMENT_THEORY = SGP/SGP4

EPOCH          = 2026-02-24T08:12:23.852736
MEAN_MOTION    = 14.85610699
ECCENTRICITY   = .002208
INCLINATION    = 82.5021
RA_OF_ASC_NODE = 1.6076
ARG_OF_PERICENTER = 59.9117
MEAN_ANOMALY   = 300.4284

EPHEMERIS_TYPE = 0
CLASSIFICATION_TYPE = U
NORAD_CAT_ID   = 18153
ELEMENT_SET_NO = 999
REV_AT_EPOCH   = 6795
BSTAR          = .64062E-4
MEAN_MOTION_DOT = .581E-5
MEAN_MOTION_DDOT = 0

CCSDS_OMM_VERS = 2.0
CREATION_DATE  = 
ORIGINATOR     = 

OBJECT_NAME    = COSMOS 1867
OBJECT_ID      = 1987-060A
CENTER_NAME    = EARTH
REF_FRAME      = TEME
TIME_SYSTEM    = UTC
MEAN_ELEMENT_THEORY = SGP/SGP4

EPOCH          = 2026-02-24T05:41:53.602080
MEAN_MOTION    = 14.31500683
ECCENTRICITY   = .0014297
INCLINATION    = 65.0127
RA_OF_ASC_NODE = 344.3767
ARG_OF_PERICENTER = 277.7985
MEAN_ANOMALY   = 82.1476

EPHEMERIS_TYPE = 0
CLASSIFICATION_TYPE = U
NORAD_CAT_ID   = 18187
ELEMENT_SET_NO = 999
REV_AT_EPOCH   = 1801
BSTAR          = .29627E-4
MEAN_MOTION_DOT = -.21E-6
MEAN_MOTION_DDOT = 0

CCSDS_OMM_VERS = 2.0
CREATION_DATE  = 
ORIGINATOR     = 

OBJECT_NAME    = SL-14 R/B
OBJECT_ID      = 1988-001B
CENTER_NAME    = EARTH
REF_FRAME      = TEME
TIME_SYSTEM    = UTC
MEAN_ELEMENT_THEORY = SGP/SGP4

EPOCH          = 2026-02-24T11:18:15.874848
MEAN_MOTION    = 14.85509154
ECCENTRICITY   = .0016608
INCLINATION    = 82.5129
RA_OF_ASC_NODE = 207.7911
ARG_OF_PERICENTER = 283.2347
MEAN_ANOMALY   = 76.7017

EPHEMERIS_TYPE = 0
CLASSIFICATION_TYPE = U
NORAD_CAT_ID   = 18749
ELEMENT_SET_NO = 999
REV_AT_EPOCH   = 4006
BSTAR          = .61684E-4
MEAN_MOTION_DOT = .557E-5
MEAN_MOTION_DDOT = 0

