SL-14 R/B               
1 16792U 86046B   26055.47097151  .00000423  00000+0  45957-4 0  9993
2 16792  82.4791  92.6755 0021557 271.8361  88.0386 14.85575950124447
SL-14 R/B               
1 16882U 86055B   26055.33364037  .00000496  00000+0  54370-4 0  9997
2 16882  82.5226 139.2256 0019359  20.9528  47.4571 14.85628586117384
AJISAI (EGS)            
1 16908U 86061A   26055.53534468 -.00000093  00000+0  30624-4 0  9992
2 16908  50.0086 133.7983 0011235 253.1215 132.2327 12.44515469466366
COSMOS 1812             
1 17295U 87003A   26055.55424593  .00622062  19686-3  74051-3 0  9998
2 17295  82.4737 210.6656 0004922 287.6561  72.4183 16.08460733142364
SL-14 R/B               
1 17567U 87024B   26055.50919920  .00000424  00000+0  45533-4 0  9993
2 17567  82.5265 105.1542 0016933 307.4483  52.5192 14.86118381 86172
COSMOS 1833             
1 17589U 87027A   26055.26868044 -.00000089  00000+0 -22052-4 0  9993
2 17589  70.9234 354.2234 0024774 232.8778 127.0080 14.13057036  8423
SL-16 R/B               
1 17590U 87027B   26055.42240754  .00000095  00000+0  70707-4 0  9990
2 17590  71.0033 304.4538 0004115 168.1450 191.9771 14.17167013 13461
SL-14 R/B               
1 17912U 87038B   26055.16055400  .00000413  00000+0  45054-4 0  9994
2 17912  82.5025 309.5518 0018497 205.3262 154.7050 14.85355481 77228
COSMOS 1844             
1 17973U 87041A   26055.45952306  .00000076  00000+0  64254-4 0  9996
2 17973  70.8987  62.0816 0029324  38.4428 321.8775 14.14552493  1710
SL-14 R/B               
1 18153U 87055B   26055.34194274  .00000581  00000+0  64062-4 0  9990
2 18153  82.5021   1.6076 0022080  59.9117 300.4284 14.85610699 67959
COSMOS 1867             
1 18187U 87060A   26055.23742595 -.00000021  00000+0  29627-4 0  9994
2 18187  65.0127 344.3767 0014297 277.7985  82.1476 14.31500683 18019
SL-14 R/B               
1 18749U 88001B   26055.47101707  .00000557  00000+0  61684-4 0  9996
2 18749  82.5129 207.7911 0016608 283.2347  76.7017 14.85509154 40065
